STARLINK-37173
1 68536U 26068AE  26110.49810621  .00263678  00000+0  12937-2 0  9996
2 68536  53.1572 299.5544 0000868  77.1958 282.9162 15.80963531  3284
SWC-1
1 68540U 26069C   26107.51011483 -.00000351  00000+0  00000+0 0  9993
2 68540  28.3533 357.7706 8357664  80.9928 279.0715  1.01840683   168
STARLINK-37326
1 68542U 26070A   26111.00002315 -.00027351  00000+0 -13552-3 0  9990
2 68542  53.1574 172.3436 0001366 107.8823 313.8137 15.80863914  4187
STARLINK-36308
1 68543U 26070B   26111.00002315 -.00020186  00000+0 -99001-4 0  9994
2 68543  53.1574 172.3346 0000994  94.1255 331.8405 15.80866510  4139
STARLINK-37263
1 68544U 26070C   26111.00002315 -.00058875  00000+0 -29666-3 0  9990
2 68544  53.1574 172.3174 0001111 121.1549 313.3499 15.80881162  4181
STARLINK-37289
1 68545U 26070D   26111.00002315 -.00011382  00000+0 -54248-4 0  9998
2 68545  53.1574 172.3259 0000981  68.3343   1.9070 15.80855072  4180
STARLINK-37290
1 68546U 26070E   26111.00002315 -.00061155  00000+0 -30833-3 0  9995
2 68546  53.1575 172.3080 0001557 118.3107 320.4672 15.80882398  4186
STARLINK-37245
1 68547U 26070F   26111.00002315 -.00033939  00000+0 -16909-3 0  9993
2 68547  53.1574 172.2905 0000890 117.4968 329.8291 15.80872934  4180
STARLINK-37145
1 68548U 26070G   26111.00002315 -.00029214  00000+0 -14498-3 0  9996
2 68548  53.1576 172.2996 0001018  78.5111   4.5397 15.80870981  4187
STARLINK-36204
1 68549U 26070H   26111.00002315 -.00014047  00000+0 -67775-4 0  9992
2 68549  53.1575 172.2817 0001130 104.6417 346.9555 15.80863289  4131
STARLINK-36304
1 68550U 26070J   26111.00002315 -.00042506  00000+0 -21284-3 0  9999
2 68550  53.1576 172.2639 0001397  49.8676  50.2717 15.80875288  4135
STARLINK-37288
1 68551U 26070K   26111.00002315 -.00029898  00000+0 -14846-3 0  9995
2 68551  53.1578 172.2550 0001639 127.9621 336.4464 15.80870929  4187
STARLINK-37295
1 68552U 26070L   26111.00002315 -.00003956  00000+0 -16520-4 0  9995
2 68552  53.1575 172.2727 0001199 123.5335 332.3340 15.80858169  4186
SL-4 R/B
1 68537U 26061S   26111.91834499  .00306768  37814-4  59685-3 0  9995
2 68537  82.3048  75.4453 0014156 307.0905  52.9078 16.00039928  4659
