[
  {
    "OBJECT_NAME": "STARLINK-37173",
    "OBJECT_ID": "2026-068AE",
    "EPOCH": "2026-04-20T11:57:16.376544",
    "MEAN_MOTION": 15.80963531,
    "ECCENTRICITY": 8.688e-05,
    "INCLINATION": 53.1572,
    "RA_OF_ASC_NODE": 299.5544,
    "ARG_OF_PERICENTER": 77.1958,
    "MEAN_ANOMALY": 282.9162,
    "EPHEMERIS_TYPE": 0,
    "CLASSIFICATION_TYPE": "U",
    "NORAD_CAT_ID": 68536,
    "ELEMENT_SET_NO": 999,
    "REV_AT_EPOCH": 328,
    "BSTAR": 0.0012936594,
    "MEAN_MOTION_DOT": 0.00263678,
    "MEAN_MOTION_DDOT": 0
  },
  {
    "OBJECT_NAME": "SL-4 R/B",
    "OBJECT_ID": "2026-061S",
    "EPOCH": "2026-04-21T22:02:25.007136",
    "MEAN_MOTION": 16.00039928,
    "ECCENTRICITY": 0.00141563,
    "INCLINATION": 82.3048,
    "RA_OF_ASC_NODE": 75.4453,
    "ARG_OF_PERICENTER": 307.0905,
    "MEAN_ANOMALY": 52.9078,
    "EPHEMERIS_TYPE": 0,
    "CLASSIFICATION_TYPE": "U",
    "NORAD_CAT_ID": 68537,
    "ELEMENT_SET_NO": 999,
    "REV_AT_EPOCH": 465,
    "BSTAR": 0.0005968531,
    "MEAN_MOTION_DOT": 0.00306768,
    "MEAN_MOTION_DDOT": 3.7813933e-05
  },
  {
    "OBJECT_NAME": "SWC-1",
    "OBJECT_ID": "2026-069C",
    "EPOCH": "2026-04-17T12:14:33.921312",
    "MEAN_MOTION": 1.01840683,
    "ECCENTRICITY": 0.8357664,
    "INCLINATION": 28.3533,
    "RA_OF_ASC_NODE": 357.7706,
    "ARG_OF_PERICENTER": 80.9928,
    "MEAN_ANOMALY": 279.0715,
    "EPHEMERIS_TYPE": 0,
    "CLASSIFICATION_TYPE": "U",
    "NORAD_CAT_ID": 68540,
    "ELEMENT_SET_NO": 999,
    "REV_AT_EPOCH": 16,
    "BSTAR": 0,
    "MEAN_MOTION_DOT": -3.51e-06,
    "MEAN_MOTION_DDOT": 0
  },
  {
    "OBJECT_NAME": "STARLINK-37326",
    "OBJECT_ID": "2026-070A",
    "EPOCH": "2026-04-21T00:00:02.000160",
    "MEAN_MOTION": 15.80863914,
    "ECCENTRICITY": 0.00013664,
    "INCLINATION": 53.1574,
    "RA_OF_ASC_NODE": 172.3436,
    "ARG_OF_PERICENTER": 107.8823,
    "MEAN_ANOMALY": 313.8137,
    "EPHEMERIS_TYPE": 0,
    "CLASSIFICATION_TYPE": "U",
    "NORAD_CAT_ID": 68542,
    "ELEMENT_SET_NO": 999,
    "REV_AT_EPOCH": 418,
    "BSTAR": -0.00013551769,
    "MEAN_MOTION_DOT": -0.00027351,
    "MEAN_MOTION_DDOT": 0
  },
  {
    "OBJECT_NAME": "STARLINK-36308",
    "OBJECT_ID": "2026-070B",
    "EPOCH": "2026-04-21T00:00:02.000160",
    "MEAN_MOTION": 15.8086651,
    "ECCENTRICITY": 9.944e-05,
    "INCLINATION": 53.1574,
    "RA_OF_ASC_NODE": 172.3346,
    "ARG_OF_PERICENTER": 94.1255,
    "MEAN_ANOMALY": 331.8405,
    "EPHEMERIS_TYPE": 0,
    "CLASSIFICATION_TYPE": "U",
    "NORAD_CAT_ID": 68543,
    "ELEMENT_SET_NO": 999,
    "REV_AT_EPOCH": 413,
    "BSTAR": -9.9001267e-05,
    "MEAN_MOTION_DOT": -0.00020186,
    "MEAN_MOTION_DDOT": 0
  },
  {
    "OBJECT_NAME": "STARLINK-37263",
    "OBJECT_ID": "2026-070C",
    "EPOCH": "2026-04-21T00:00:02.000160",
    "MEAN_MOTION": 15.80881162,
    "ECCENTRICITY": 0.00011111,
    "INCLINATION": 53.1574,
    "RA_OF_ASC_NODE": 172.3174,
    "ARG_OF_PERICENTER": 121.1549,
    "MEAN_ANOMALY": 313.3499,
    "EPHEMERIS_TYPE": 0,
    "CLASSIFICATION_TYPE": "U",
    "NORAD_CAT_ID": 68544,
    "ELEMENT_SET_NO": 999,
    "REV_AT_EPOCH": 418,
    "BSTAR": -0.00029666273,
    "MEAN_MOTION_DOT": -0.00058875,
    "MEAN_MOTION_DDOT": 0
  },
  {
    "OBJECT_NAME": "STARLINK-37289",
    "OBJECT_ID": "2026-070D",
    "EPOCH": "2026-04-21T00:00:02.000160",
    "MEAN_MOTION": 15.80855072,
    "ECCENTRICITY": 9.818e-05,
    "INCLINATION": 53.1574,
    "RA_OF_ASC_NODE": 172.3259,
    "ARG_OF_PERICENTER": 68.3343,
    "MEAN_ANOMALY": 1.907,
    "EPHEMERIS_TYPE": 0,
    "CLASSIFICATION_TYPE": "U",
    "NORAD_CAT_ID": 68545,
    "ELEMENT_SET_NO": 999,
    "REV_AT_EPOCH": 418,
    "BSTAR": -5.4248189e-05,
    "MEAN_MOTION_DOT": -0.00011382,
    "MEAN_MOTION_DDOT": 0
  },
  {
    "OBJECT_NAME": "STARLINK-37290",
    "OBJECT_ID": "2026-070E",
    "EPOCH": "2026-04-21T00:00:02.000160",
    "MEAN_MOTION": 15.80882398,
    "ECCENTRICITY": 0.00015579,
    "INCLINATION": 53.1575,
    "RA_OF_ASC_NODE": 172.308,
    "ARG_OF_PERICENTER": 118.3107,
    "MEAN_ANOMALY": 320.4672,
    "EPHEMERIS_TYPE": 0,
    "CLASSIFICATION_TYPE": "U",
    "NORAD_CAT_ID": 68546,
    "ELEMENT_SET_NO": 999,
    "REV_AT_EPOCH": 418,
    "BSTAR": -0.00030833325,
    "MEAN_MOTION_DOT": -0.00061155,
    "MEAN_MOTION_DDOT": 0
  },
  {
    "OBJECT_NAME": "STARLINK-37245",
    "OBJECT_ID": "2026-070F",
    "EPOCH": "2026-04-21T00:00:02.000160",
    "MEAN_MOTION": 15.80872934,
    "ECCENTRICITY": 8.909e-05,
    "INCLINATION": 53.1574,
    "RA_OF_ASC_NODE": 172.2905,
    "ARG_OF_PERICENTER": 117.4968,
    "MEAN_ANOMALY": 329.8291,
    "EPHEMERIS_TYPE": 0,
    "CLASSIFICATION_TYPE": "U",
    "NORAD_CAT_ID": 68547,
    "ELEMENT_SET_NO": 999,
    "REV_AT_EPOCH": 418,
    "BSTAR": -0.00016908934,
    "MEAN_MOTION_DOT": -0.00033939,
    "MEAN_MOTION_DDOT": 0
  },
  {
    "OBJECT_NAME": "STARLINK-37145",
    "OBJECT_ID": "2026-070G",
    "EPOCH": "2026-04-21T00:00:02.000160",
    "MEAN_MOTION": 15.80870981,
    "ECCENTRICITY": 0.00010182,
    "INCLINATION": 53.1576,
    "RA_OF_ASC_NODE": 172.2996,
    "ARG_OF_PERICENTER": 78.5111,
    "MEAN_ANOMALY": 4.5397,
    "EPHEMERIS_TYPE": 0,
    "CLASSIFICATION_TYPE": "U",
    "NORAD_CAT_ID": 68548,
    "ELEMENT_SET_NO": 999,
    "REV_AT_EPOCH": 418,
    "BSTAR": -0.00014498172,
    "MEAN_MOTION_DOT": -0.00029214,
    "MEAN_MOTION_DDOT": 0
  },
  {
    "OBJECT_NAME": "STARLINK-36204",
    "OBJECT_ID": "2026-070H",
    "EPOCH": "2026-04-21T00:00:02.000160",
    "MEAN_MOTION": 15.80863289,
    "ECCENTRICITY": 0.00011304,
    "INCLINATION": 53.1575,
    "RA_OF_ASC_NODE": 172.2817,
    "ARG_OF_PERICENTER": 104.6417,
    "MEAN_ANOMALY": 346.9555,
    "EPHEMERIS_TYPE": 0,
    "CLASSIFICATION_TYPE": "U",
    "NORAD_CAT_ID": 68549,
    "ELEMENT_SET_NO": 999,
    "REV_AT_EPOCH": 413,
    "BSTAR": -6.7774963e-05,
    "MEAN_MOTION_DOT": -0.00014047,
    "MEAN_MOTION_DDOT": 0
  },
  {
    "OBJECT_NAME": "STARLINK-36304",
    "OBJECT_ID": "2026-070J",
    "EPOCH": "2026-04-21T00:00:02.000160",
    "MEAN_MOTION": 15.80875288,
    "ECCENTRICITY": 0.00013973,
    "INCLINATION": 53.1576,
    "RA_OF_ASC_NODE": 172.2639,
    "ARG_OF_PERICENTER": 49.8676,
    "MEAN_ANOMALY": 50.2717,
    "EPHEMERIS_TYPE": 0,
    "CLASSIFICATION_TYPE": "U",
    "NORAD_CAT_ID": 68550,
    "ELEMENT_SET_NO": 999,
    "REV_AT_EPOCH": 413,
    "BSTAR": -0.00021283617,
    "MEAN_MOTION_DOT": -0.00042506,
    "MEAN_MOTION_DDOT": 0
  },
  {
    "OBJECT_NAME": "STARLINK-37288",
    "OBJECT_ID": "2026-070K",
    "EPOCH": "2026-04-21T00:00:02.000160",
    "MEAN_MOTION": 15.80870929,
    "ECCENTRICITY": 0.00016393,
    "INCLINATION": 53.1578,
    "RA_OF_ASC_NODE": 172.255,
    "ARG_OF_PERICENTER": 127.9621,
    "MEAN_ANOMALY": 336.4464,
    "EPHEMERIS_TYPE": 0,
    "CLASSIFICATION_TYPE": "U",
    "NORAD_CAT_ID": 68551,
    "ELEMENT_SET_NO": 999,
    "REV_AT_EPOCH": 418,
    "BSTAR": -0.00014845762,
    "MEAN_MOTION_DOT": -0.00029898,
    "MEAN_MOTION_DDOT": 0
  },
  {
    "OBJECT_NAME": "STARLINK-37295",
    "OBJECT_ID": "2026-070L",
    "EPOCH": "2026-04-21T00:00:02.000160",
    "MEAN_MOTION": 15.80858169,
    "ECCENTRICITY": 0.00011998,
    "INCLINATION": 53.1575,
    "RA_OF_ASC_NODE": 172.2727,
    "ARG_OF_PERICENTER": 123.5335,
    "MEAN_ANOMALY": 332.334,
    "EPHEMERIS_TYPE": 0,
    "CLASSIFICATION_TYPE": "U",
    "NORAD_CAT_ID": 68552,
    "ELEMENT_SET_NO": 999,
    "REV_AT_EPOCH": 418,
    "BSTAR": -1.6519663e-05,
    "MEAN_MOTION_DOT": -3.956e-05,
    "MEAN_MOTION_DDOT": 0
  }
]